[{"OBJECT_NAME":"STARLINK-30866","OBJECT_ID":"2023-171H","EPOCH":"2025-07-30T19:57:30.748032","MEAN_MOTION":15.02535289,"ECCENTRICITY":7.35e-5,"INCLINATION":43.0046,"RA_OF_ASC_NODE":51.3885,"ARG_OF_PERICENTER":258.9151,"MEAN_ANOMALY":101.1609,"EPHEMERIS_TYPE":0,"CLASSIFICATION_TYPE":"U","NORAD_CAT_ID":58237,"ELEMENT_SET_NO":999,"REV_AT_EPOCH":9635,"BSTAR":3.2876e-5,"MEAN_MOTION_DOT":2.41e-6,"MEAN_MOTION_DDOT":0},{"OBJECT_NAME":"STARLINK-30817","OBJECT_ID":"2023-171J","EPOCH":"2025-07-30T22:21:12.120192","MEAN_MOTION":15.02531638,"ECCENTRICITY":7.17e-5,"INCLINATION":43.0023,"RA_OF_ASC_NODE":51.2688,"ARG_OF_PERICENTER":246.9987,"MEAN_ANOMALY":113.078,"EPHEMERIS_TYPE":0,"CLASSIFICATION_TYPE":"U","NORAD_CAT_ID":58238,"ELEMENT_SET_NO":999,"REV_AT_EPOCH":9636,"BSTAR":0.0002206,"MEAN_MOTION_DOT":2.777e-5,"MEAN_MOTION_DDOT":0},{"OBJECT_NAME":"STARLINK-30847","OBJECT_ID":"2023-171K","EPOCH":"2025-07-30T22:25:58.787616","MEAN_MOTION":15.02536317,"ECCENTRICITY":0.0001275,"INCLINATION":43.004,"RA_OF_ASC_NODE":51.301,"ARG_OF_PERICENTER":268.4462,"MEAN_ANOMALY":91.6234,"EPHEMERIS_TYPE":0,"CLASSIFICATION_TYPE":"U","NORAD_CAT_ID":58239,"ELEMENT_SET_NO":999,"REV_AT_EPOCH":9638,"BSTAR":3.9851e-5,"MEAN_MOTION_DOT":3.35e-6,"MEAN_MOTION_DDOT":0},{"OBJECT_NAME":"STARLINK-30848","OBJECT_ID":"2023-171L","EPOCH":"2025-07-30T22:47:06.024192","MEAN_MOTION":15.02537867,"ECCENTRICITY":0.0001074,"INCLINATION":43.007,"RA_OF_ASC_NODE":52.2436,"ARG_OF_PERICENTER":275.1666,"MEAN_ANOMALY":84.9054,"EPHEMERIS_TYPE":0,"CLASSIFICATION_TYPE":"U","NORAD_CAT_ID":58240,"ELEMENT_SET_NO":999,"REV_AT_EPOCH":9635,"BSTAR":3.5335e-5,"MEAN_MOTION_DOT":2.74e-6,"MEAN_MOTION_DDOT":0},{"OBJECT_NAME":"STARLINK-30843","OBJECT_ID":"2023-171M","EPOCH":"2025-07-30T22:30:46.574784","MEAN_MOTION":15.02534637,"ECCENTRICITY":0.0001102,"INCLINATION":43.0046,"RA_OF_ASC_NODE":51.3112,"ARG_OF_PERICENTER":271.3812,"MEAN_ANOMALY":88.6904,"EPHEMERIS_TYPE":0,"CLASSIFICATION_TYPE":"U","NORAD_CAT_ID":58241,"ELEMENT_SET_NO":999,"REV_AT_EPOCH":9638,"BSTAR":1.8916e-5,"MEAN_MOTION_DOT":5.2e-7,"MEAN_MOTION_DDOT":0},{"OBJECT_NAME":"STARLINK-30877","OBJECT_ID":"2023-171N","EPOCH":"2025-07-30T20:02:18.115296","MEAN_MOTION":15.02536172,"ECCENTRICITY":0.0001015,"INCLINATION":43.0041,"RA_OF_ASC_NODE":51.4112,"ARG_OF_PERICENTER":260.0784,"MEAN_ANOMALY":99.9944,"EPHEMERIS_TYPE":0,"CLASSIFICATION_TYPE":"U","NORAD_CAT_ID":58242,"ELEMENT_SET_NO":999,"REV_AT_EPOCH":9635,"BSTAR":4.8283e-5,"MEAN_MOTION_DOT":4.49e-6,"MEAN_MOTION_DDOT":0},{"OBJECT_NAME":"STARLINK-30864","OBJECT_ID":"2023-171P","EPOCH":"2025-07-30T22:40:11.791488","MEAN_MOTION":15.02554148,"ECCENTRICITY":9.05e-5,"INCLINATION":43.0044,"RA_OF_ASC_NODE":50.525,"ARG_OF_PERICENTER":250.6563,"MEAN_ANOMALY":109.4182,"EPHEMERIS_TYPE":0,"CLASSIFICATION_TYPE":"U","NORAD_CAT_ID":58243,"ELEMENT_SET_NO":999,"REV_AT_EPOCH":9628,"BSTAR":0.00021843,"MEAN_MOTION_DOT":2.75e-5,"MEAN_MOTION_DDOT":0},{"OBJECT_NAME":"STARLINK-30854","OBJECT_ID":"2023-171Q","EPOCH":"2025-07-30T22:27:55.861344","MEAN_MOTION":15.02533739,"ECCENTRICITY":0.0001174,"INCLINATION":43.0033,"RA_OF_ASC_NODE":52.1605,"ARG_OF_PERICENTER":260.6833,"MEAN_ANOMALY":99.3876,"EPHEMERIS_TYPE":0,"CLASSIFICATION_TYPE":"U","NORAD_CAT_ID":58244,"ELEMENT_SET_NO":999,"REV_AT_EPOCH":9638,"BSTAR":-4.694e-5,"MEAN_MOTION_DOT":-8.38e-6,"MEAN_MOTION_DDOT":0},{"OBJECT_NAME":"STARLINK-30849","OBJECT_ID":"2023-171R","EPOCH":"2025-07-30T22:44:59.436960","MEAN_MOTION":15.02536079,"ECCENTRICITY":0.0001098,"INCLINATION":43.0043,"RA_OF_ASC_NODE":50.548,"ARG_OF_PERICENTER":269.0013,"MEAN_ANOMALY":91.0703,"EPHEMERIS_TYPE":0,"CLASSIFICATION_TYPE":"U","NORAD_CAT_ID":58245,"ELEMENT_SET_NO":999,"REV_AT_EPOCH":9637,"BSTAR":-4.7983e-5,"MEAN_MOTION_DOT":-8.52e-6,"MEAN_MOTION_DDOT":0},{"OBJECT_NAME":"STARLINK-30886","OBJECT_ID":"2023-171S","EPOCH":"2025-07-30T21:18:51.332832","MEAN_MOTION":15.02535157,"ECCENTRICITY":0.0001021,"INCLINATION":43.0048,"RA_OF_ASC_NODE":50.9546,"ARG_OF_PERICENTER":267.7882,"MEAN_ANOMALY":92.2844,"EPHEMERIS_TYPE":0,"CLASSIFICATION_TYPE":"U","NORAD_CAT_ID":58246,"ELEMENT_SET_NO":999,"REV_AT_EPOCH":9636,"BSTAR":3.4899e-5,"MEAN_MOTION_DOT":2.68e-6,"MEAN_MOTION_DDOT":0},{"OBJECT_NAME":"STARLINK-30850","OBJECT_ID":"2023-171T","EPOCH":"2025-07-30T22:49:47.695872","MEAN_MOTION":15.02542209,"ECCENTRICITY":8.18e-5,"INCLINATION":43.005,"RA_OF_ASC_NODE":50.572,"ARG_OF_PERICENTER":285.2433,"MEAN_ANOMALY":74.8319,"EPHEMERIS_TYPE":0,"CLASSIFICATION_TYPE":"U","NORAD_CAT_ID":58247,"ELEMENT_SET_NO":999,"REV_AT_EPOCH":9623,"BSTAR":0.00014602,"MEAN_MOTION_DOT":1.77e-5,"MEAN_MOTION_DDOT":0},{"OBJECT_NAME":"STARLINK-30823","OBJECT_ID":"2023-171U","EPOCH":"2025-07-30T19:47:55.311072","MEAN_MOTION":15.0253318,"ECCENTRICITY":0.0001135,"INCLINATION":43.0038,"RA_OF_ASC_NODE":51.3417,"ARG_OF_PERICENTER":264.2522,"MEAN_ANOMALY":95.8191,"EPHEMERIS_TYPE":0,"CLASSIFICATION_TYPE":"U","NORAD_CAT_ID":58248,"ELEMENT_SET_NO":999,"REV_AT_EPOCH":9635,"BSTAR":2.8426e-6,"MEAN_MOTION_DOT":-1.65e-6,"MEAN_MOTION_DDOT":0},{"OBJECT_NAME":"STARLINK-30873","OBJECT_ID":"2023-171V","EPOCH":"2025-07-30T23:04:10.116480","MEAN_MOTION":15.02519262,"ECCENTRICITY":0.0001235,"INCLINATION":43.0038,"RA_OF_ASC_NODE":50.6424,"ARG_OF_PERICENTER":270.5744,"MEAN_ANOMALY":89.4957,"EPHEMERIS_TYPE":0,"CLASSIFICATION_TYPE":"U","NORAD_CAT_ID":58249,"ELEMENT_SET_NO":999,"REV_AT_EPOCH":9639,"BSTAR":0.00012448,"MEAN_MOTION_DOT":1.478e-5,"MEAN_MOTION_DDOT":0},{"OBJECT_NAME":"STARLINK-30808","OBJECT_ID":"2023-171W","EPOCH":"2025-07-30T23:44:38.515488","MEAN_MOTION":15.02532714,"ECCENTRICITY":0.0001232,"INCLINATION":43.0039,"RA_OF_ASC_NODE":52.5342,"ARG_OF_PERICENTER":268.0694,"MEAN_ANOMALY":92.0007,"EPHEMERIS_TYPE":0,"CLASSIFICATION_TYPE":"U","NORAD_CAT_ID":58250,"ELEMENT_SET_NO":999,"REV_AT_EPOCH":9637,"BSTAR":1.3317e-5,"MEAN_MOTION_DOT":-2.4e-7,"MEAN_MOTION_DDOT":0},{"OBJECT_NAME":"STARLINK-30881","OBJECT_ID":"2023-171X","EPOCH":"2025-07-30T22:35:33.212832","MEAN_MOTION":15.02535755,"ECCENTRICITY":0.0001471,"INCLINATION":43.0064,"RA_OF_ASC_NODE":51.264,"ARG_OF_PERICENTER":267.1242,"MEAN_ANOMALY":92.9432,"EPHEMERIS_TYPE":0,"CLASSIFICATION_TYPE":"U","NORAD_CAT_ID":58251,"ELEMENT_SET_NO":999,"REV_AT_EPOCH":9636,"BSTAR":3.126e-5,"MEAN_MOTION_DOT":2.19e-6,"MEAN_MOTION_DDOT":0},{"OBJECT_NAME":"STARLINK-30883","OBJECT_ID":"2023-171Y","EPOCH":"2025-07-30T21:42:49.416768","MEAN_MOTION":15.02538646,"ECCENTRICITY":0.0001136,"INCLINATION":43.0028,"RA_OF_ASC_NODE":51.0724,"ARG_OF_PERICENTER":265.5115,"MEAN_ANOMALY":94.5598,"EPHEMERIS_TYPE":0,"CLASSIFICATION_TYPE":"U","NORAD_CAT_ID":58252,"ELEMENT_SET_NO":999,"REV_AT_EPOCH":9636,"BSTAR":-2.6991e-6,"MEAN_MOTION_DOT":-2.4e-6,"MEAN_MOTION_DDOT":0},{"OBJECT_NAME":"STARLINK-30907","OBJECT_ID":"2023-177B","EPOCH":"2025-07-31T03:06:48.904416","MEAN_MOTION":15.0253695,"ECCENTRICITY":6.73e-5,"INCLINATION":43.0017,"RA_OF_ASC_NODE":115.7996,"ARG_OF_PERICENTER":250.6821,"MEAN_ANOMALY":109.3949,"EPHEMERIS_TYPE":0,"CLASSIFICATION_TYPE":"U","NORAD_CAT_ID":58352,"ELEMENT_SET_NO":999,"REV_AT_EPOCH":9489,"BSTAR":1.6805e-5,"MEAN_MOTION_DOT":2.4e-7,"MEAN_MOTION_DDOT":0},{"OBJECT_NAME":"STARLINK-30896","OBJECT_ID":"2023-177C","EPOCH":"2025-07-30T11:19:20.694720","MEAN_MOTION":15.25905842,"ECCENTRICITY":0.0001436,"INCLINATION":43.0029,"RA_OF_ASC_NODE":23.3708,"ARG_OF_PERICENTER":296.1505,"MEAN_ANOMALY":63.9198,"EPHEMERIS_TYPE":0,"CLASSIFICATION_TYPE":"U","NORAD_CAT_ID":58353,"ELEMENT_SET_NO":999,"REV_AT_EPOCH":9585,"BSTAR":9.6176e-6,"MEAN_MOTION_DOT":-6.0e-8,"MEAN_MOTION_DDOT":0},{"OBJECT_NAME":"STARLINK-30832","OBJECT_ID":"2023-177D","EPOCH":"2025-07-31T02:12:29.283840","MEAN_MOTION":15.02526826,"ECCENTRICITY":7.6e-5,"INCLINATION":43.0053,"RA_OF_ASC_NODE":115.5224,"ARG_OF_PERICENTER":284.41,"MEAN_ANOMALY":75.6658,"EPHEMERIS_TYPE":0,"CLASSIFICATION_TYPE":"U","NORAD_CAT_ID":58354,"ELEMENT_SET_NO":999,"REV_AT_EPOCH":9473,"BSTAR":-6.8678e-5,"MEAN_MOTION_DOT":-1.131e-5,"MEAN_MOTION_DDOT":0},{"OBJECT_NAME":"STARLINK-30903","OBJECT_ID":"2023-177E","EPOCH":"2025-07-30T22:30:49.091616","MEAN_MOTION":15.02536555,"ECCENTRICITY":8.37e-5,"INCLINATION":43.0034,"RA_OF_ASC_NODE":116.9541,"ARG_OF_PERICENTER":251.345,"MEAN_ANOMALY":108.7301,"EPHEMERIS_TYPE":0,"CLASSIFICATION_TYPE":"U","NORAD_CAT_ID":58355,"ELEMENT_SET_NO":999,"REV_AT_EPOCH":9487,"BSTAR":3.466e-5,"MEAN_MOTION_DOT":2.65e-6,"MEAN_MOTION_DDOT":0},{"OBJECT_NAME":"STARLINK-30905","OBJECT_ID":"2023-177F","EPOCH":"2025-07-30T11:03:08.052768","MEAN_MOTION":15.02535069,"ECCENTRICITY":0.0001005,"INCLINATION":43.0039,"RA_OF_ASC_NODE":119.3538,"ARG_OF_PERICENTER":264.0201,"MEAN_ANOMALY":96.0527,"EPHEMERIS_TYPE":0,"CLASSIFICATION_TYPE":"U","NORAD_CAT_ID":58356,"ELEMENT_SET_NO":999,"REV_AT_EPOCH":9472,"BSTAR":8.7723e-5,"MEAN_MOTION_DOT":9.82e-6,"MEAN_MOTION_DDOT":0},{"OBJECT_NAME":"STARLINK-30842","OBJECT_ID":"2023-177G","EPOCH":"2025-07-30T02:37:21.639072","MEAN_MOTION":15.02534192,"ECCENTRICITY":0.0001137,"INCLINATION":43.0031,"RA_OF_ASC_NODE":107.2456,"ARG_OF_PERICENTER":266.827,"MEAN_ANOMALY":93.2443,"EPHEMERIS_TYPE":0,"CLASSIFICATION_TYPE":"U","NORAD_CAT_ID":58357,"ELEMENT_SET_NO":999,"REV_AT_EPOCH":9489,"BSTAR":9.9604e-5,"MEAN_MOTION_DOT":1.142e-5,"MEAN_MOTION_DDOT":0},{"OBJECT_NAME":"STARLINK-30858","OBJECT_ID":"2023-177H","EPOCH":"2025-07-31T03:08:25.514304","MEAN_MOTION":15.02534525,"ECCENTRICITY":0.0001495,"INCLINATION":43.0023,"RA_OF_ASC_NODE":115.8172,"ARG_OF_PERICENTER":262.7818,"MEAN_ANOMALY":97.2854,"EPHEMERIS_TYPE":0,"CLASSIFICATION_TYPE":"U","NORAD_CAT_ID":58358,"ELEMENT_SET_NO":999,"REV_AT_EPOCH":9490,"BSTAR":3.0416e-5,"MEAN_MOTION_DOT":2.07e-6,"MEAN_MOTION_DDOT":0},{"OBJECT_NAME":"STARLINK-30878","OBJECT_ID":"2023-177J","EPOCH":"2025-07-31T02:04:28.963776","MEAN_MOTION":15.02532913,"ECCENTRICITY":9.72e-5,"INCLINATION":42.9985,"RA_OF_ASC_NODE":115.4756,"ARG_OF_PERICENTER":258.7005,"MEAN_ANOMALY":101.3728,"EPHEMERIS_TYPE":0,"CLASSIFICATION_TYPE":"U","NORAD_CAT_ID":58359,"ELEMENT_SET_NO":999,"REV_AT_EPOCH":9489,"BSTAR":4.3428e-5,"MEAN_MOTION_DOT":3.83e-6,"MEAN_MOTION_DDOT":0}]
